start=new Date('2022-05-13T00:00:00.000Z').valueOf();
sats=[{"REV_AT_EPOCH":"130","EPOCH":"2022-05-12T22:00:00.999936","TLE_LINE2":"2 51813  53.2175 126.3541 0001152  59.5653   2.5641 15.61506395  1300","LAUNCH_DATE":"2022-02-25","REF_FRAME":"TEME","FILE":"3442534","ARG_OF_PERICENTER":"59.5653","EPHEMERIS_TYPE":"0","MEAN_MOTION":"15.61506395","INCLINATION":"53.2175","OBJECT_ID":"2022-017AX","COUNTRY_CODE":"US","MEAN_ELEMENT_THEORY":"SGP4","RCS_SIZE":"LARGE","MEAN_MOTION_DOT":"-0.00714811","CENTER_NAME":"EARTH","MEAN_MOTION_DDOT":"0.0000000000000","DECAY_DATE":null,"PERIAPSIS":"382.528","OBJECT_TYPE":"PAYLOAD","OBJECT_NAME":"STARLINK-3552","GP_ID":"203394649","SEMIMAJOR_AXIS":"6761.442","ELEMENT_SET_NO":"999","RA_OF_ASC_NODE":"126.3541","SITE":"AFWTR","APOAPSIS":"384.086","NORAD_CAT_ID":"51813","TIME_SYSTEM":"UTC","MEAN_ANOMALY":"2.5641","PERIOD":"92.219","ECCENTRICITY":"0.00011520","CLASSIFICATION_TYPE":"U","BSTAR":"-0.00894020000000","TLE_LINE1":"1 51813U 22017AX  22132.91667824 -.00714811  00000-0 -89402-2 0  9992"},{"LAUNCH_DATE":"2022-02-25","REF_FRAME":"TEME","FILE":"3442534","REV_AT_EPOCH":"130","EPOCH":"2022-05-12T22:00:00.999936","TLE_LINE2":"2 51814  53.2175 126.4547 0001174  59.7390   5.4061 15.61525565  1300","CENTER_NAME":"EARTH","MEAN_MOTION_DOT":"-0.00715063","MEAN_MOTION_DDOT":"0.0000000000000","DECAY_DATE":null,"PERIAPSIS":"382.458","ARG_OF_PERICENTER":"59.7390","EPHEMERIS_TYPE":"0","MEAN_MOTION":"15.61525565","INCLINATION":"53.2175","OBJECT_ID":"2022-017AY","COUNTRY_CODE":"US","MEAN_ELEMENT_THEORY":"SGP4","RCS_SIZE":"LARGE","ELEMENT_SET_NO":"999","RA_OF_ASC_NODE":"126.4547","SITE":"AFWTR","APOAPSIS":"384.045","NORAD_CAT_ID":"51814","OBJECT_NAME":"STARLINK-3599","OBJECT_TYPE":"PAYLOAD","GP_ID":"203394564","SEMIMAJOR_AXIS":"6761.387","BSTAR":"-0.00893690000000","TLE_LINE1":"1 51814U 22017AY  22132.91667824 -.00715063  00000-0 -89369-2 0  9995","MEAN_ANOMALY":"5.4061","TIME_SYSTEM":"UTC","PERIOD":"92.218","ECCENTRICITY":"0.00011740","CLASSIFICATION_TYPE":"U"},{"PERIOD":"92.218","ECCENTRICITY":"0.00011390","CLASSIFICATION_TYPE":"U","TIME_SYSTEM":"UTC","MEAN_ANOMALY":"1.9175","TLE_LINE1":"1 51815U 22017AZ  22132.91667824 -.00715040  00000-0 -89382-2 0  9996","BSTAR":"-0.00893820000000","GP_ID":"203395072","SEMIMAJOR_AXIS":"6761.399","OBJECT_TYPE":"PAYLOAD","OBJECT_NAME":"STARLINK-3604","SITE":"AFWTR","APOAPSIS":"384.034","NORAD_CAT_ID":"51815","ELEMENT_SET_NO":"999","RA_OF_ASC_NODE":"126.4487","OBJECT_ID":"2022-017AZ","INCLINATION":"53.2175","COUNTRY_CODE":"US","MEAN_ELEMENT_THEORY":"SGP4","RCS_SIZE":"LARGE","ARG_OF_PERICENTER":"62.4732","EPHEMERIS_TYPE":"0","MEAN_MOTION":"15.61521191","DECAY_DATE":null,"PERIAPSIS":"382.494","MEAN_MOTION_DOT":"-0.00715040","CENTER_NAME":"EARTH","MEAN_MOTION_DDOT":"0.0000000000000","TLE_LINE2":"2 51815  53.2175 126.4487 0001139  62.4732   1.9175 15.61521191  1304","REV_AT_EPOCH":"130","EPOCH":"2022-05-12T22:00:00.999936","REF_FRAME":"TEME","FILE":"3442534","LAUNCH_DATE":"2022-02-25"},{"CENTER_NAME":"EARTH","MEAN_MOTION_DOT":"-0.00715031","MEAN_MOTION_DDOT":"0.0000000000000","DECAY_DATE":null,"PERIAPSIS":"382.458","EPHEMERIS_TYPE":"0","ARG_OF_PERICENTER":"61.5078","MEAN_MOTION":"15.61529913","COUNTRY_CODE":"US","INCLINATION":"53.2175","OBJECT_ID":"2022-017BA","RCS_SIZE":"LARGE","MEAN_ELEMENT_THEORY":"SGP4","LAUNCH_DATE":"2022-02-25","REF_FRAME":"TEME","FILE":"3442534","REV_AT_EPOCH":"130","EPOCH":"2022-05-12T22:00:00.999936","TLE_LINE2":"2 51816  53.2175 126.4606 0001156  61.5078   4.3917 15.61529913  1301","BSTAR":"-0.00893500000000","TLE_LINE1":"1 51816U 22017BA  22132.91667824 -.00715031  00000-0 -89350-2 0  9992","MEAN_ANOMALY":"4.3917","TIME_SYSTEM":"UTC","CLASSIFICATION_TYPE":"U","ECCENTRICITY":"0.00011560","PERIOD":"92.217","RA_OF_ASC_NODE":"126.4606","ELEMENT_SET_NO":"999","SITE":"AFWTR","NORAD_CAT_ID":"51816","APOAPSIS":"384.021","OBJECT_NAME":"STARLINK-3603","OBJECT_TYPE":"PAYLOAD","GP_ID":"203394479","SEMIMAJOR_AXIS":"6761.374"},{"TIME_SYSTEM":"UTC","MEAN_ANOMALY":"77.6943","PERIOD":"91.328","CLASSIFICATION_TYPE":"U","ECCENTRICITY":"0.00085230","BSTAR":"0.00002615600000","TLE_LINE1":"1 51817U 22017BB  22132.69478617  .00003624  00000-0  26156-4 0  9991","OBJECT_TYPE":"PAYLOAD","OBJECT_NAME":"STARLINK-3596","SEMIMAJOR_AXIS":"6717.848","GP_ID":"203394987","ELEMENT_SET_NO":"999","RA_OF_ASC_NODE":"122.9030","SITE":"AFWTR","APOAPSIS":"345.439","NORAD_CAT_ID":"51817","ARG_OF_PERICENTER":"282.3124","EPHEMERIS_TYPE":"0","MEAN_MOTION":"15.76730522","OBJECT_ID":"2022-017BB","INCLINATION":"53.2155","COUNTRY_CODE":"US","MEAN_ELEMENT_THEORY":"SGP4","RCS_SIZE":"LARGE","CENTER_NAME":"EARTH","MEAN_MOTION_DOT":"0.00003624","MEAN_MOTION_DDOT":"0.0000000000000","DECAY_DATE":null,"PERIAPSIS":"333.988","REV_AT_EPOCH":"1325","EPOCH":"2022-05-12T16:40:29.525088","TLE_LINE2":"2 51817  53.2155 122.9030 0008523 282.3124  77.6943 15.76730522 13257","LAUNCH_DATE":"2022-02-25","REF_FRAME":"TEME","FILE":"3442534"},{"BSTAR":"0.00119790000000","TLE_LINE1":"1 51852U 22022A   22132.91667824  .00018830  00000-0  11979-2 0  9991","TIME_SYSTEM":"UTC","MEAN_ANOMALY":"331.9575","ECCENTRICITY":"0.00020080","CLASSIFICATION_TYPE":"U","PERIOD":"95.437","RA_OF_ASC_NODE":"169.4796","ELEMENT_SET_NO":"999","SITE":"AFETR","NORAD_CAT_ID":"51852","APOAPSIS":"541.125","OBJECT_NAME":"STARLINK-3542","OBJECT_TYPE":"PAYLOAD","GP_ID":"203395076","SEMIMAJOR_AXIS":"6917.871","MEAN_MOTION_DOT":"0.00018830","CENTER_NAME":"EARTH","MEAN_MOTION_DDOT":"0.0000000000000","DECAY_DATE":null,"PERIAPSIS":"538.346","EPHEMERIS_TYPE":"0","ARG_OF_PERICENTER":"32.9025","MEAN_MOTION":"15.08843229","COUNTRY_CODE":"US","OBJECT_ID":"2022-022A","INCLINATION":"53.2132","RCS_SIZE":"LARGE","MEAN_ELEMENT_THEORY":"SGP4","LAUNCH_DATE":"2022-03-03","REF_FRAME":"TEME","FILE":"3442534","REV_AT_EPOCH":"130","EPOCH":"2022-05-12T22:00:00.999936","TLE_LINE2":"2 51852  53.2132 169.4796 0002008  32.9025 331.9575 15.08843229  1301"},{"OBJECT_TYPE":"PAYLOAD","OBJECT_NAME":"STARLINK-3539","GP_ID":"203394483","SEMIMAJOR_AXIS":"6917.858","ELEMENT_SET_NO":"999","RA_OF_ASC_NODE":"169.4799","APOAPSIS":"541.100","NORAD_CAT_ID":"51853","SITE":"AFETR","TIME_SYSTEM":"UTC","MEAN_ANOMALY":"302.4521","PERIOD":"95.437","CLASSIFICATION_TYPE":"U","ECCENTRICITY":"0.00019900","BSTAR":"0.00033445000000","TLE_LINE1":"1 51853U 22022B   22132.91667824  .00005040  00000-0  33445-3 0  9994","EPOCH":"2022-05-12T22:00:00.999936","REV_AT_EPOCH":"130","TLE_LINE2":"2 51853  53.2135 169.4799 0001990  42.4182 302.4521 15.08847357  1307","LAUNCH_DATE":"2022-03-03","FILE":"3442534","REF_FRAME":"TEME","MEAN_MOTION":"15.08847357","ARG_OF_PERICENTER":"42.4182","EPHEMERIS_TYPE":"0","MEAN_ELEMENT_THEORY":"SGP4","RCS_SIZE":"LARGE","INCLINATION":"53.2135","OBJECT_ID":"2022-022B","COUNTRY_CODE":"US","MEAN_MOTION_DDOT":"0.0000000000000","MEAN_MOTION_DOT":"0.00005040","CENTER_NAME":"EARTH","PERIAPSIS":"538.346","DECAY_DATE":null},{"TLE_LINE1":"1 51854U 22022C   22132.91667824  .00038250  00000-0  24097-2 0  9996","BSTAR":"0.00240970000000","CLASSIFICATION_TYPE":"U","ECCENTRICITY":"0.00020920","PERIOD":"95.439","TIME_SYSTEM":"UTC","MEAN_ANOMALY":"348.4875","NORAD_CAT_ID":"51854","APOAPSIS":"541.256","SITE":"AFETR","RA_OF_ASC_NODE":"169.4766","ELEMENT_SET_NO":"999","GP_ID":"203394991","SEMIMAJOR_AXIS":"6917.944","OBJECT_NAME":"STARLINK-3541","OBJECT_TYPE":"PAYLOAD","PERIAPSIS":"538.362","DECAY_DATE":null,"MEAN_MOTION_DDOT":"0.0000000000000","CENTER_NAME":"EARTH","MEAN_MOTION_DOT":"0.00038250","RCS_SIZE":"LARGE","MEAN_ELEMENT_THEORY":"SGP4","COUNTRY_CODE":"US","INCLINATION":"53.2131","OBJECT_ID":"2022-022C","MEAN_MOTION":"15.08819209","EPHEMERIS_TYPE":"0","ARG_OF_PERICENTER":"36.4233","FILE":"3442534","REF_FRAME":"TEME","LAUNCH_DATE":"2022-03-03","TLE_LINE2":"2 51854  53.2131 169.4766 0002092  36.4233 348.4875 15.08819209  1309","EPOCH":"2022-05-12T22:00:00.999936","REV_AT_EPOCH":"130"},{"SEMIMAJOR_AXIS":"6917.890","GP_ID":"203394906","OBJECT_NAME":"STARLINK-3545","OBJECT_TYPE":"PAYLOAD","SITE":"AFETR","APOAPSIS":"540.998","NORAD_CAT_ID":"51855","ELEMENT_SET_NO":"999","RA_OF_ASC_NODE":"169.4769","PERIOD":"95.438","CLASSIFICATION_TYPE":"U","ECCENTRICITY":"0.00017960","MEAN_ANOMALY":"16.9895","TIME_SYSTEM":"UTC","TLE_LINE1":"1 51855U 22022D   22132.91667824  .00032582  00000-0  20560-2 0  9990","BSTAR":"0.00205600000000","TLE_LINE2":"2 51855  53.2137 169.4769 0001796  47.8626  16.9895 15.08836788  1301","REV_AT_EPOCH":"130","EPOCH":"2022-05-12T22:00:00.999936","REF_FRAME":"TEME","FILE":"3442534","LAUNCH_DATE":"2022-03-03","INCLINATION":"53.2137","OBJECT_ID":"2022-022D","COUNTRY_CODE":"US","MEAN_ELEMENT_THEORY":"SGP4","RCS_SIZE":"LARGE","ARG_OF_PERICENTER":"47.8626","EPHEMERIS_TYPE":"0","MEAN_MOTION":"15.08836788","DECAY_DATE":null,"PERIAPSIS":"538.513","CENTER_NAME":"EARTH","MEAN_MOTION_DOT":"0.00032582","MEAN_MOTION_DDOT":"0.0000000000000"},{"MEAN_MOTION_DDOT":"0.0000000000000","CENTER_NAME":"EARTH","MEAN_MOTION_DOT":"0.00037702","PERIAPSIS":"538.564","DECAY_DATE":null,"MEAN_MOTION":"15.08821858","EPHEMERIS_TYPE":"0","ARG_OF_PERICENTER":"41.8239","RCS_SIZE":"LARGE","MEAN_ELEMENT_THEORY":"SGP4","COUNTRY_CODE":"US","INCLINATION":"53.2134","OBJECT_ID":"2022-022E","LAUNCH_DATE":"2022-03-03","FILE":"3442534","REF_FRAME":"TEME","EPOCH":"2022-05-12T22:00:00.999936","REV_AT_EPOCH":"130","TLE_LINE2":"2 51856  53.2134 169.4777 0001788  41.8239   3.0498 15.08821858  1301","BSTAR":"0.00237550000000","TLE_LINE1":"1 51856U 22022E   22132.91667824  .00037702  00000-0  23755-2 0  9999","MEAN_ANOMALY":"3.0498","TIME_SYSTEM":"UTC","CLASSIFICATION_TYPE":"U","ECCENTRICITY":"0.00017880","PERIOD":"95.439","RA_OF_ASC_NODE":"169.4777","ELEMENT_SET_NO":"999","NORAD_CAT_ID":"51856","APOAPSIS":"541.038","SITE":"AFETR","OBJECT_NAME":"STARLINK-3568","OBJECT_TYPE":"PAYLOAD","GP_ID":"203394738","SEMIMAJOR_AXIS":"6917.936"}];
